         0.0000000       15.4912617     6797.4200808        0.0000298       51.6468000      214.8466000        5.0465000       51.6468000
      1440.0000000       15.4912795     6797.4148879        0.0000298       51.6468000       32.3231070        0.0961784       51.6468000
      1668.9461328       15.4912823     6797.4140623        0.0000298       51.6468000      199.0887493      359.3091238       51.6468000


 1 25544U 98067A   21018.24435185 +.00000437  00000 0  15913-4 0 0999                                                                                                                                                                                                                                                                                                                                                                                                                                                            
 2 25544  51.6468   4.3571 0000298 264.6541 271.6293 15.4929821126535                                                                                                                                                                                                                                                                                                                                                                                                                                                            

         0.0000000       15.4912642     6797.4193584        0.0000298       51.6468000      271.6293000        4.3571000       51.6468000
      1440.0000000       15.4912820     6797.4141655        0.0000298       51.6468000       89.1066962      359.4067766       51.6468000
      1468.3952880       15.4912823     6797.4140631        0.0000298       51.6468000      199.0887583      359.3091613       51.6468000


 1 25544U 98067A   21018.42396323 +.00000576  00000 0  18407-4 0 0999                                                                                                                                                                                                                                                                                                                                                                                                                                                            
 2 25544  51.6467   3.4695 0000261 274.2255 184.5001 15.4929938926538                                                                                                                                                                                                                                                                                                                                                                                                                                                            

         0.0000000       15.4912759     6797.4159298        0.0000261       51.6467000      184.5001000        3.4695000       51.6467000
      1209.7549008       15.4912932     6797.4108833        0.0000261       51.6467000      190.1845691      359.3106794       51.6467000


 1 25544U 98067A   21018.92664238 +.00000670  00000 0  20093-4 0 0999                                                                                                                                                                                                                                                                                                                                                                                                                                                            
 2 25544  51.6468   0.9811 0000287 269.9206 114.3413 15.4930096526546                                                                                                                                                                                                                                                                                                                                                                                                                                                            

         0.0000000       15.4912917     6797.4113043        0.0000287       51.6468000      114.3413000        0.9811000       51.6468000
       485.8969248       15.4912993     6797.4090917        0.0000287       51.6468000      196.3434120      359.3107145       51.6468000


 1 25544U 98067A   21019.07169087 +.00000653  00000 0  19792-4 0 0999                                                                                                                                                                                                                                                                                                                                                                                                                                                            
 2 25544  51.6466   0.2635 0000259 274.8692 198.9321 15.4930124126548                                                                                                                                                                                                                                                                                                                                                                                                                                                            

         0.0000000       15.4912944     6797.4105302        0.0000259       51.6466000      198.9321000        0.2635000       51.6466000
       277.0270992       15.4912986     6797.4092875        0.0000259       51.6466000      191.9284419      359.3111495       51.6466000


 1 25544U 98067A   21019.26407080 +.00000787  00000 0  22186-4 0 0999                                                                                                                                                                                                                                                                                                                                                                                                                                                            
 2 25544  51.6466 359.3118 0000279 283.9595 183.5470 15.4930222826551                                                                                                                                                                                                                                                                                                                                                                                                                                                            

